      2.10          N: GNSS NAV DATA                        RINEX VERSION / TYPE
fic2rin                                 06/27/2018 00:40:48 PGM / RUN BY / DATE
                                                            END OF HEADER
19 18  6 26  8  0  0.0-4.253964871168e-04 3.069544618484e-12 0.000000000000e+00
    5.100000000000e+01-1.024062500000e+02 3.973379792931e-09 5.084849953896e-01
   -5.215406417847e-06 9.908402571455e-03 4.881992936134e-06 5.153715488434e+03
    2.016000000000e+05-2.607703208923e-07 2.079247291784e+00-7.078051567078e-08
    9.803262335626e-01 3.017812500000e+02 1.215800601192e+00-7.990689987169e-09
   -3.582292073987e-10 1.000000000000e+00 2.007000000000e+03 0.000000000000e+00
    2.400000000000e+00 0.000000000000e+00-1.536682248116e-08 5.100000000000e+01
    1.944060000000e+05 4.000000000000e+00
21 18  6 26  8  0  0.0-3.761537373066e-04 5.343281372916e-12 0.000000000000e+00
    8.700000000000e+01-5.837500000000e+01 4.605191824724e-09-8.396851339705e-03
   -3.086403012276e-06 2.434819680639e-02 1.083686947823e-05 5.153685234070e+03
    2.016000000000e+05-5.438923835754e-07 2.979172791191e+00-1.303851604462e-08
    9.446757874812e-01 1.698750000000e+02-1.548984221159e+00-8.327846888250e-09
    3.089414400796e-10 1.000000000000e+00 2.007000000000e+03 0.000000000000e+00
    2.400000000000e+00 0.000000000000e+00-1.024454832077e-08 8.700000000000e+01
    1.944060000000e+05 4.000000000000e+00
26 18  6 26  8  0  0.0-1.034000888467e-04 1.227817847393e-11 0.000000000000e+00
    8.500000000000e+01 8.146875000000e+01 4.764841331910e-09-4.733891766622e-01
    4.148110747337e-06 2.789894351736e-03 2.140179276466e-06 5.153680112839e+03
    2.016000000000e+05 5.587935447693e-08 9.151153084429e-01-4.284083843231e-08
    9.554707828733e-01 3.373125000000e+02 1.218656212894e-01-8.466066931384e-09
    5.821671067396e-11 1.000000000000e+00 2.007000000000e+03 0.000000000000e+00
    3.400000000000e+00 0.000000000000e+00 7.450580596924e-09 8.500000000000e+01
    1.944060000000e+05 4.000000000000e+00
16 18  6 26  8  0  0.0 2.006115391850e-05-1.364242052659e-12 0.000000000000e+00
    6.000000000000e+01 6.412500000000e+01 4.061240595544e-09-1.368458197663e+00
    3.397464752197e-06 9.997443063185e-03 1.804903149605e-06 5.153653976440e+03
    2.016000000000e+05 1.527369022369e-07 1.016664063888e+00-1.490116119385e-07
    9.866814408196e-01 3.590937500000e+02 5.225579703398e-01-8.074979212439e-09
    1.121475285376e-10 1.000000000000e+00 2.007000000000e+03 0.000000000000e+00
    2.400000000000e+00 0.000000000000e+00-1.071020960808e-08 6.000000000000e+01
    1.944060000000e+05 4.000000000000e+00
18 18  6 26  8  0  0.0 2.624187618494e-05 4.661160346586e-12 0.000000000000e+00
    3.300000000000e+01-7.634375000000e+01 4.309108063076e-09 1.529029266618e+00
   -4.066154360771e-06 1.469150430057e-02 1.110136508942e-05 5.153655347824e+03
    2.016000000000e+05-2.123415470123e-07 2.986443156110e+00-2.942979335785e-07
    9.504268885691e-01 1.616250000000e+02 1.315177081284e+00-7.951045478673e-09
    3.571577341961e-10 1.000000000000e+00 2.007000000000e+03 0.000000000000e+00
    2.400000000000e+00 0.000000000000e+00-6.984919309616e-09 3.300000000000e+01
    1.944060000000e+05 4.000000000000e+00
10 18  6 26  8  0  0.0 1.887031830847e-04 3.410605131648e-13 0.000000000000e+00
    8.200000000000e+01 1.537500000000e+01 4.830915512736e-09-2.926593862324e-01
    9.164214134216e-07 3.595527610742e-03 6.092712283134e-06 5.153657680511e+03
    2.016000000000e+05 4.097819328308e-08-2.209990454425e+00 4.097819328308e-08
    9.610448635590e-01 2.623750000000e+02-2.750619467050e+00-8.127481399366e-09
    4.950206195958e-10 1.000000000000e+00 2.007000000000e+03 0.000000000000e+00
    2.400000000000e+00 0.000000000000e+00 1.862645149231e-09 8.200000000000e+01
    1.944060000000e+05 4.000000000000e+00
30 18  6 26  8  0  0.0 5.800370126963e-05-4.547473508865e-12 0.000000000000e+00
    4.900000000000e+01 9.243750000000e+01 4.726982612085e-09 1.167752673403e+00
    4.988163709641e-06 3.518529003486e-03 1.017749309540e-05 5.153731185913e+03
    2.016000000000e+05 4.656612873077e-08-6.200078985033e-02-9.313225746155e-09
    9.443064401650e-01 1.707812500000e+02-3.045393890502e+00-8.077479316579e-09
   -2.125088518467e-10 1.000000000000e+00 2.007000000000e+03 0.000000000000e+00
    2.400000000000e+00 0.000000000000e+00 3.725290298462e-09 4.900000000000e+01
    1.944060000000e+05 4.000000000000e+00
29 18  6 26  8  0  0.0 4.257308319211e-04-6.707523425575e-12 0.000000000000e+00
    6.000000000000e+01-1.007500000000e+02 3.978737158944e-09-1.471110518527e+00
   -5.315989255905e-06 8.345532696694e-04 4.854053258896e-06 5.153674880981e+03
    2.016000000000e+05 1.303851604462e-08 2.042948865158e+00 2.607703208923e-08
    9.840523093171e-01 2.980312500000e+02 1.305534781953e+00-7.937473484774e-09
   -3.228705917133e-10 1.000000000000e+00 2.007000000000e+03 0.000000000000e+00
    2.400000000000e+00 0.000000000000e+00-1.024454832077e-08 6.000000000000e+01
    1.944060000000e+05 4.000000000000e+00
20 18  6 26  8  0  0.0 5.112783983350e-04 6.821210263297e-13 0.000000000000e+00
    5.100000000000e+01 2.053125000000e+01 5.488800059125e-09 1.680750855917e+00
    1.050531864166e-06 3.944043186493e-03 6.221234798431e-06 5.153659296036e+03
    2.016000000000e+05 9.499490261078e-08-2.317043878018e+00-3.725290298462e-09
    9.284268272183e-01 2.425625000000e+02 2.037652109852e+00-8.382492021582e-09
    5.396653363703e-10 1.000000000000e+00 2.007000000000e+03 0.000000000000e+00
    2.400000000000e+00 0.000000000000e+00-8.381903171539e-09 5.100000000000e+01
    1.944060000000e+05 4.000000000000e+00
28 18  6 26  8  0  0.0 7.266243919730e-04 2.842170943040e-12 0.000000000000e+00
    1.000000000000e+02 6.878125000000e+01 4.179102647828e-09-1.419008685282e+00
    3.788620233536e-06 1.946938131005e-02 2.169981598854e-06 5.153681591034e+03
    2.016000000000e+05-1.862645149231e-07 1.020891768400e+00 4.991888999939e-07
    9.855566660139e-01 3.534062500000e+02-1.517981976374e+00-8.228199880409e-09
   -2.857261873569e-12 1.000000000000e+00 2.007000000000e+03 0.000000000000e+00
    4.850000000000e+00 0.000000000000e+00-1.117587089539e-08 1.000000000000e+02
    1.944060000000e+05 4.000000000000e+00
 1 18  6 26 10  0  0.0-5.987705662847e-05-3.637978807092e-12 0.000000000000e+00
    1.600000000000e+01-6.656250000000e+01 3.771228515376e-09 2.839154790833e+00
   -3.440305590630e-06 7.926023681648e-03 1.167133450508e-05 5.153675567627e+03
    2.088000000000e+05-2.235174179077e-08 3.034159877783e+00-6.891787052155e-08
    9.720525789431e-01 1.598437500000e+02 6.470322686111e-01-7.495312209839e-09
    3.707297280955e-10 1.000000000000e+00 2.007000000000e+03 0.000000000000e+00
    2.400000000000e+00 0.000000000000e+00 5.587935447693e-09 1.600000000000e+01
    2.016060000000e+05 4.000000000000e+00
 2 18  6 26 10  0  0.0 7.500313222408e-05-1.091393642128e-11 0.000000000000e+00
    5.100000000000e+01-7.900000000000e+01 4.146958451751e-09-3.115079517760e+00
   -3.946945071220e-06 1.790852285922e-02 1.052208244801e-05 5.153767875671e+03
    2.088000000000e+05 1.937150955200e-07 2.972440778661e+00-1.154839992523e-07
    9.511092813364e-01 1.674687500000e+02-1.850092965787e+00-7.441024234241e-09
    2.650110387735e-10 1.000000000000e+00 2.007000000000e+03 0.000000000000e+00
    2.400000000000e+00 0.000000000000e+00-2.048909664154e-08 5.100000000000e+01
    2.016060000000e+05 4.000000000000e+00
 3 18  6 26 10  0  0.0 9.568687528372e-05 6.480149750132e-12 0.000000000000e+00
    1.070000000000e+02 1.928125000000e+01 4.736268713174e-09 1.939282480202e+00
    9.518116712570e-07 1.476548844948e-03 6.031244993210e-06 5.153724676132e+03
    2.088000000000e+05-1.303851604462e-08-2.206610655768e+00 2.421438694000e-08
    9.609588600680e-01 2.594062500000e+02 4.604029099264e-01-8.079265105250e-09
    5.000208278745e-10 1.000000000000e+00 2.007000000000e+03 0.000000000000e+00
    2.400000000000e+00 0.000000000000e+00 2.328306436539e-09 1.070000000000e+02
    2.016060000000e+05 4.000000000000e+00
 4 18  6 26 10  0  0.0 7.329694926739e-05 3.524291969370e-12 0.000000000000e+00
    7.000000000000e+00 6.956250000000e+01 5.711666485264e-09-4.995895815685e-02
    3.784894943237e-06 9.830007795244e-03 2.253800630569e-06 5.153706651688e+03
    2.088000000000e+05 5.587935447693e-09 9.626264316091e-01 9.872019290924e-08
    9.787394033961e-01 3.421250000000e+02 9.329930465853e-01-8.368562869948e-09
    5.143071372424e-11 1.000000000000e+00 2.007000000000e+03 0.000000000000e+00
    2.400000000000e+00 6.300000000000e+01-1.955777406693e-08 7.000000000000e+00
    2.016060000000e+05 4.000000000000e+00
13 18  6 26 10  0  0.0-9.311456233263e-05 3.410605131648e-13 0.000000000000e+00
    1.400000000000e+01-2.193750000000e+01 4.541260590303e-09-2.593067032999e+00
   -1.210719347000e-06 3.307521576062e-03 7.994472980499e-06 5.153657571793e+03
    2.088000000000e+05 3.166496753693e-08-1.040384734874e+00-1.490116119385e-08
    9.681183869996e-01 2.273437500000e+02 1.548521764959e+00-7.832111953186e-09
   -4.468043254793e-10 1.000000000000e+00 2.007000000000e+03 0.000000000000e+00
    2.400000000000e+00 0.000000000000e+00-1.117587089539e-08 1.400000000000e+01
    2.016060000000e+05 4.000000000000e+00
 9 18  6 26 10  0  0.0 5.144514143467e-04-2.273736754432e-13 0.000000000000e+00
    1.600000000000e+01-2.168750000000e+01 5.030209528418e-09-1.056467011714e+00
   -1.177191734314e-06 8.917030645534e-04 7.359310984612e-06 5.153591518402e+03
    2.088000000000e+05 1.117587089539e-08-1.172559446242e+00-1.862645149231e-08
    9.523087863863e-01 2.386875000000e+02 1.849275732934e+00-8.137124658189e-09
   -4.157316026042e-10 1.000000000000e+00 2.007000000000e+03 0.000000000000e+00
    2.400000000000e+00 0.000000000000e+00 9.313225746155e-10 1.600000000000e+01
    2.016060000000e+05 4.000000000000e+00
